[{"OBJECT_NAME":"GHGSAT-C2","OBJECT_ID":"2021-006DA","EPOCH":"2026-03-09T16:22:36.229728","MEAN_MOTION":15.36517997,"ECCENTRICITY":0.00061235,"INCLINATION":97.2293,"RA_OF_ASC_NODE":117.6581,"ARG_OF_PERICENTER":150.646,"MEAN_ANOMALY":209.513,"EPHEMERIS_TYPE":0,"CLASSIFICATION_TYPE":"U","NORAD_CAT_ID":47509,"ELEMENT_SET_NO":999,"REV_AT_EPOCH":28456,"BSTAR":0.00026516759,"MEAN_MOTION_DOT":9.377e-5,"MEAN_MOTION_DDOT":0},{"OBJECT_NAME":"TRANSPORTER-5 OBJECT V","OBJECT_ID":"2022-057V","EPOCH":"2026-03-09T22:32:39.603264","MEAN_MOTION":15.36038689,"ECCENTRICITY":0.00071239,"INCLINATION":97.6463,"RA_OF_ASC_NODE":213.1013,"ARG_OF_PERICENTER":92.6453,"MEAN_ANOMALY":267.5606,"EPHEMERIS_TYPE":0,"CLASSIFICATION_TYPE":"U","NORAD_CAT_ID":52751,"ELEMENT_SET_NO":999,"REV_AT_EPOCH":21046,"BSTAR":0.00039927859,"MEAN_MOTION_DOT":0.00013948,"MEAN_MOTION_DDOT":0}]
